stk.v.4.3

BEGIN Ephemeris

NumberOfEphemerisPoints    6000
ScenarioEpoch     19 Feb 2003 20:59: 47.0000000
InterpolationMethod		Lagrange 
InterpolationOrder		5 
CentralBody				Earth 
CoordinateSystem     Fixed
CoordinateSystemEpoch   19 Feb 2003 20:59: 47.0000000
DistanceUnit			Kilometers 

EphemerisTimePosVel 

  88739.99999999   -451.09850300     485.52362000   -6952.01236000  0.6339033680  7.5368393059  0.4852794829
  88769.99999999   -431.35531300     711.29371600   -6933.80523000  0.6821778440  7.5131570180  0.7284244692
  88799.99999998   -410.17615000     936.23258600   -6908.31443200  0.7296207232  7.4814295288  0.9708154727
  88829.99999998   -387.58723200    1160.09938700   -6875.56635200  0.7761474370  7.4416923099  1.2122015377
  88860.00000000   -363.61730200    1382.65446300   -6835.59489200  0.8216744624  7.3939892136  1.4523324883
  88890.00000000   -338.29758600    1603.65960100   -6788.44144500  0.8661195109  7.3383725331  1.6909592160
  88920.00000000   -311.66176200    1822.87828300   -6734.15485800  0.9094016709  7.2749029302  1.9278340071
  88950.00000000   -283.74591100    2040.07593400   -6672.79138500  0.9514414966  7.2036493130  2.1627107816
  88980.00000000   -254.58847600    2255.02016900   -6604.41463500  0.9921610922  7.1246887544  2.3953452763
  89010.00000000   -224.23021200    2467.48103900   -6529.09551500  1.0314842268  7.0381064674  2.6254952259
  89040.00000000   -192.71413400    2677.23127100   -6446.91216800  1.0693364753  6.9439958194  2.8529205943
  89070.00000000   -160.08546000    2884.04651700   -6357.94990100  1.1056453647  6.8424583109  3.0773839155
  89100.00000000   -126.39155200    3087.70559300   -6262.30110000  1.1403404778  6.7336033861  3.2986506443
  89130.00000000    -91.68185400    3287.99071500   -6160.06514400  1.1733535103  6.6175482181  3.5164893457
  89160.00000000    -56.00782600    3484.68772800   -6051.34830300  1.2046183401  6.4944175782  3.7306718326
  89190.00000000    -19.42287700    3677.58633500   -5936.26364500  1.2340711412  6.3643437700  3.9409732971
  89220.00000000     18.01770500    3866.48031900   -5814.93092900  1.2616505241  6.2274666203  4.1471725190
  89250.00000000     56.25682900    4051.16776900   -5687.47649100  1.2872976540  6.0839333997  4.3490521595
  89280.00000000     95.23567700    4231.45130500   -5554.03312800  1.3109563331  5.9338986627  4.5463990297
  89310.00000000    134.89378600    4407.13828800   -5414.73996700  1.3325730732  5.7775240946  4.7390043063
  89340.00000000    175.16913200    4578.04103700   -5269.74233000  1.3520971863  5.6149783878  4.9266637585
  89370.00000000    215.99821000    4743.97703300   -5119.19159500  1.3694808870  5.4464370921  5.1091779973
  89400.00000000    257.31612900    4904.76912700   -4963.24504700  1.3846793891  5.2720824332  5.2863527127
  89430.00000000    299.05670100    5060.24573100   -4802.06572000  1.3976509911  5.0921031216  5.4579988942
  89459.99999999    341.15253100    5210.24101600   -4635.82223600  1.4083571513  4.9066941645  5.6239330393
  89489.99999999    383.53511800    5354.59509400   -4464.68863800  1.4167625578  4.7160566791  5.7839773740
  89519.99999999    426.13495200    5493.15420000   -4288.84421200  1.4228351910  4.5203976756  5.9379600780
  89549.99999999    468.88161100    5625.77086400   -4108.47330800  1.4265463807  4.3199298179  6.0857154762
  89579.99999999    511.70386400    5752.30407900   -3923.76515200  1.4278708641  4.1148712082  6.2270841977
  89609.99999999    554.52977400    5872.61946100   -3734.91365400  1.4267868561  3.9054452009  6.3619133514
  89639.99999999    597.28680400    5986.58940000   -3542.11721100  1.4232761137  3.6918802042  6.4900567380
  89669.99999999    639.90192300    6094.09321400   -3345.57850300  1.4173239844  3.4744094320  6.6113750760
  89699.99999999    682.30171500    6195.01728500   -3145.50428100  1.4089194380  3.2532706237  6.7257361878
  89729.99999999    724.41248700    6289.25519000   -2942.10515600  1.3980551014  3.0287057770  6.8330151493
  89759.99999999    766.16038200    6376.70783000   -2735.59537200  1.3847272991  2.8009608999  6.9330944468
  89789.99999999    807.47148700    6457.28354100   -2526.19258800  1.3689360893  2.5702857478  7.0258641532
  89819.99999999    848.27194700    6530.89820400   -2314.11764300  1.3506852851  2.3369335270  7.1112221043
  89849.99999999    888.48807900    6597.47534400   -2099.59432400  1.3299824518  2.1011605728  7.1890740403
  89879.99999999    928.04648300    6656.94622200   -1882.84912600  1.3068389012  1.8632260485  7.2593337037
  89909.99999999    966.87415200    6709.24990800   -1664.11100900  1.2812697059  1.6233916762  7.3219229374
  89939.99999999   1004.89859300    6754.33336400   -1443.61115600  1.2532937221  1.3819214614  7.3767718178
  89969.99999999   1042.04793000    6792.15149700   -1221.58272200  1.2229335964  1.1390813619  7.4238187893
  89999.99999999   1078.25102700    6822.66722200    -998.26058200  1.1902157510  0.8951389353  7.4630107581
  90029.99999999   1113.43759500    6845.85149800    -773.88107500  1.1551703531  0.6503630063  7.4943031613
  90059.99999999   1147.53830700    6861.68336500    -548.68175000  1.1178312730  0.4050233344  7.5176600326
  90089.99999999   1180.48490600    6870.14996500    -322.90110500  1.0782360430  0.1593902818  7.5330540402
  90119.99999999   1212.21031500    6871.24655500     -96.77832600  1.0364258188 -0.0862655084  7.5404665253
  90149.99999998   1242.64874800    6864.97651400     129.44696900  0.9924453202 -0.3316734440  7.5398875233
  90179.99999998   1271.73581000    6851.35133000     355.53499400  0.9463427623 -0.5765632909  7.5313157672
  90210.00000000   1299.40860500    6830.39059400     581.24605900  0.8981697965 -0.8206654932  7.5147586994
  90240.00000000   1325.60584000    6802.12196400     806.34082100  0.8479814672 -1.0637114976  7.4902324274
  90270.00000000   1350.26792000    6766.58114000    1030.58055700  0.7958361946 -1.3054339881  7.4577617059
  90300.00000000   1373.33705500    6723.81181900    1253.72741100  0.7417956947 -1.5455671970  7.4173800337
  90330.00000000   1394.75735400    6673.86564000    1475.54466800  0.6859248318 -1.7838473307  7.3691296233
  90360.00000000   1414.47491600    6616.80212600    1695.79700600  0.6282915222 -2.0200128879  7.3130612682
  90390.00000000   1432.43792600    6552.68860400    1914.25075500  0.5689666828 -2.2538049586  7.2492342732
  90420.00000000   1448.59673700    6481.60012500    2130.67415000  0.5080241783 -2.4849675380  7.1777163332
  90450.00000000   1462.90396400    6403.61937700    2344.83758300  0.4455407641 -2.7132477356  7.0985834529
  90480.00000000   1475.31456600    6318.83658200    2556.51384800  0.3815959802 -2.9383960299  7.0119199716
  90510.00000000   1485.78592700    6227.34939400    2765.47839900  0.3162720016 -3.1601666145  6.9178185589
  90540.00000000   1494.27793700    6129.26278100    2971.50958900  0.2496534544 -3.3783178034  6.8163801370
  90570.00000000   1500.75305400    6024.68889400    3174.38892400  0.1818272126 -3.5926124326  6.7077136495
  90600.00000000   1505.17638000    5913.74692700    3373.90129100  0.1128823190 -3.8028181251  6.5919357225
  90630.00000000   1507.51571700    5796.56297300    3569.83519100  0.0429100716 -4.0087074198  6.4691704066
  90660.00000000   1507.74164300    5673.26987300    3761.98295300 -0.0279959158 -4.2100578859  6.3395491335
  90690.00000000   1505.82757900    5544.00706200    3950.14096500 -0.0997398851 -4.4066523216  6.2032108090
  90720.00000000   1501.74984300    5408.92041300    4134.10989300 -0.1722242978 -4.5982790729  6.0603018792
  90750.00000000   1495.48770400    5268.16205400    4313.69490800 -0.2453502236 -4.7847325394  5.9109761941
  90780.00000000   1487.02341400    5121.89018700    4488.70590200 -0.3190175207 -4.9658136146  5.7553944437
  90809.99999999   1476.34225100    4970.26888900    4658.95768200 -0.3931247154 -5.1413297215  5.5937236140
  90839.99999999   1463.43255800    4813.46791700    4824.27015800 -0.4675689657 -5.3110948418  5.4261368731
  90869.99999999   1448.28578000    4651.66250400    4984.46852500 -0.5422463187 -5.4749297490  5.2528134501
  90899.99999999   1430.89649400    4485.03316000    5139.38344500 -0.6170519171 -5.6326621014  5.0739383227
  90929.99999999   1411.26243800    4313.76546100    5288.85121200 -0.6918800490 -5.7841264141  4.8897020962
  90959.99999999   1389.38452900    4138.04984300    5432.71392100 -0.7666242508 -5.9291642359  4.7003010113
  90989.99999999   1365.26689000    3958.08138600    5570.81963900 -0.8411774986 -6.0676244534  4.5059367927
  91019.99999999   1338.91686100    3774.05959100    5703.02256400 -0.9154323960 -6.1993635318  4.3068163491
  91049.99999999   1310.34500500    3586.18814700    5829.18317400 -0.9892813264 -6.3242456574  4.1031514605
  91079.99999999   1279.56511700    3394.67470400    5949.16837000 -1.0626165950 -6.4421428353  3.8951585067
  91109.99999999   1246.59422100    3199.73063100    6062.85161000 -1.1353305683 -6.5529349724  3.6830582250
  91139.99999999   1211.45256900    3001.57078000    6170.11303700 -1.2073158033 -6.6565099570  3.4670754831
  91169.99999999   1174.16363100    2800.41324900    6270.83960100 -1.2784651706 -6.7527637430  3.2474390670
  91199.99999999   1134.75408400    2596.47913000    6364.92516800 -1.3486719924 -6.8416004519  3.0243814753
  91229.99999999   1093.25379700    2389.99227100    6452.27063600 -1.4178301944 -6.9229324974  2.7981386895
  91259.99999999   1049.69581100    2181.17902200    6532.78402800 -1.4858344561 -6.9966807143  2.5689498844
  91289.99999999   1004.11631300    1970.26797700    6606.38058800 -1.5525803602 -7.0627744219  2.3370570770
  91319.99999999    956.55460700    1757.48972700    6672.98285800 -1.6179645259 -7.1211513780  2.1027048300
END Ephemeris
